0 INSAT 4CR
1 32050U 07037A   13281.99733051 -.00000089  00000-0  00000+0 0  5879
2 32050 000.0611 088.3970 0002986 113.3827 249.0381 01.00271572 22382
0 INSAT 4CR
1 32050U 07037A   13281.99733051 -.00000089  00000-0  00000+0 0  5880
2 32050 000.0611 088.3970 0002986 113.3827 249.0381 01.00271572 22382
0 INSAT 4CR
1 32050U 07037A   13282.90625507 -.00000092  00000-0  00000+0 0  5893
2 32050 000.0628 087.7796 0002998 114.0714 217.0738 01.00271514 22393
0 INSAT 4CR
1 32050U 07037A   13283.07253119  .00000000  00000-0  10000-3 0  5891
2 32050 000.0570 097.8363 0003190 101.3029 279.8151 01.00268525 22296
0 INSAT 4CR
1 32050U 07037A   13283.85579203 -.00000095  00000-0  00000+0 0  5904
2 32050 000.0642 087.3051 0003066 111.6094 202.7797 01.00271573 22403
0 INSAT 4CR
1 32050U 07037A   13284.76419015 -.00000098  00000-0  00000+0 0  5924
2 32050 000.0591 087.5081 0003236 106.2208 175.8844 01.00271419 22410
0 INSAT 4CR
1 32050U 07037A   13285.82881948 -.00000101  00000-0  00000+0 0  5936
2 32050 000.0618 086.0510 0003330 111.2186 196.6561 01.00271544 22424
0 INSAT 4CR
1 32050U 07037A   13285.82881948 -.00000101  00000-0  00000+0 0  5947
2 32050 000.0618 086.0510 0003330 111.2186 196.6561 01.00271544 22424
0 INSAT 4CR
1 32050U 07037A   13285.82881948 -.00000101  00000-0  00000+0 0  5958
2 32050 000.0618 086.0510 0003330 111.2186 196.6561 01.00271544 22424
0 INSAT 4CR
1 32050U 07037A   13286.75354426 -.00000102  00000-0  00000+0 0  5969
2 32050 000.0630 084.6948 0003353 115.3333 167.7073 01.00271590 22430
0 INSAT 4CR
1 32050U 07037A   13287.90820529 -.00000102  00000-0  00000+0 0  5970
2 32050 000.0651 083.5230 0003499 121.3827 219.6413 01.00271661 22446
0 INSAT 4CR
1 32050U 07037A   13287.90820529 -.00000102  00000-0  00000+0 0  5981
2 32050 000.0651 083.5230 0003499 121.3827 219.6413 01.00271661 22446
0 INSAT 4CR
1 32050U 07037A   13288.85769227 -.00000102  00000-0  00000+0 0  5994
2 32050 000.0660 086.2745 0003541 121.2696 199.7532 01.00271846 22454
0 INSAT 4CR
1 32050U 07037A   13289.86428023 -.00000100  00000-0  00000+0 0  6003
2 32050 000.0767 085.9070 0003562 122.8552 201.8980 01.00271860 22469
0 INSAT 4CR
1 32050U 07037A   13289.86428023 -.00000100  00000-0  00000+0 0  6014
2 32050 000.0767 085.9070 0003562 122.8552 201.8980 01.00271860 22469
0 INSAT 4CR
1 32050U 07037A   13290.89577043 -.00000098  00000-0  00000+0 0  6023
2 32050 000.0793 085.4021 0003742 126.5616 211.0493 01.00272078 22476
0 INSAT 4CR
1 32050U 07037A   13290.89577043 -.00000098  00000-0  00000+0 0  6034
2 32050 000.0793 085.4021 0003742 126.5616 211.0493 01.00272078 22476
0 INSAT 4CR
1 32050U 07037A   13291.67361708 -.00000096  00000-0  00000+0 0  6049
2 32050 000.0812 085.0587 0003777 127.3184 131.4283 01.00272172 22475
0 INSAT 4CR
1 32050U 07037A   13292.92332813 -.00000094  00000-0  00000+0 0  6052
2 32050 000.0842 084.4959 0003752 129.1573 221.2825 01.00272414 22490
0 INSAT 4CR
1 32050U 07037A   13293.58240147 -.00000093  00000-0  00000+0 0  6063
2 32050 000.0851 084.6437 0003860 130.9364 097.2721 01.00272459 22496
0 INSAT 4CR
1 32050U 07037A   13293.80291019 -.00000092  00000-0  00000+0 0  6072
2 32050 000.0848 084.4925 0003884 132.1832 175.7775 01.00272520 22504
0 INSAT 4CR
1 32050U 07037A   13294.61231135 -.00000091  00000-0  00000+0 0  6085
2 32050 000.0860 084.4654 0003880 131.6693 108.5032 01.00272596 22505
0 INSAT 4CR
1 32050U 07037A   13295.69080441 -.00000090  00000-0  00000+0 0  6096
2 32050 000.0875 084.4151 0003869 131.1198 138.4280 01.00272784 22512
0 INSAT 4CR
1 32050U 07037A   13295.69080441 -.00000090  00000-0  00000+0 0  6108
2 32050 000.0875 084.4151 0003869 131.1198 138.4280 01.00272784 22512
